{
  "type": "FeatureCollection",
  "features": [
    {
      "type": "Feature",
      "properties": {
        "norad_id": 31952,
        "name": "FENGYUN 1C DEB",
        "group": "fengyun-1c-debris",
        "lat": 36.93561637252576,
        "lon": -63.072548935062954,
        "alt_km": 765.3721349885718,
        "timestamp": "2025-12-18T14:52:08.310752+00:00",
        "meta_object_name": "FENGYUN 1C DEB",
        "meta_object_id": "1999-025CND",
        "meta_epoch": "2025-12-17T18:22:47.933184",
        "meta_mean_motion": 14.53516514,
        "meta_eccentricity": 0.01140128,
        "meta_inclination": 98.9554,
        "meta_ra_of_asc_node": 109.2069,
        "meta_arg_of_pericenter": 277.259,
        "meta_mean_anomaly": 81.5656,
        "meta_ephemeris_type": 0,
        "meta_classification_type": "U",
        "meta_norad_cat_id": 31952,
        "meta_element_set_no": 999,
        "meta_rev_at_epoch": 97282,
        "meta_bstar": 0.00038492879,
        "meta_mean_motion_dot": 1.691e-05,
        "meta_mean_motion_ddot": 0,
        "tle_line1": "1 31952U 99025CND 25351.76583256  .00001691  00000+0  38493-3 0  9999",
        "tle_line2": "2 31952  98.9554 109.2069 0114012 277.2590  81.5656 14.53516514972824"
      },
      "geometry": {
        "type": "Point",
        "coordinates": [
          -63.072548935062954,
          36.93561637252576
        ]
      }
    },
    {
      "type": "Feature",
      "properties": {
        "norad_id": 31955,
        "name": "FENGYUN 1C DEB",
        "group": "fengyun-1c-debris",
        "lat": 44.35109693000337,
        "lon": -139.03153136438956,
        "alt_km": 690.6599422767404,
        "timestamp": "2025-12-18T14:52:08.310762+00:00",
        "meta_object_name": "FENGYUN 1C DEB",
        "meta_object_id": "1999-025CNG",
        "meta_epoch": "2025-12-18T03:51:57.403584",
        "meta_mean_motion": 14.6398145,
        "meta_eccentricity": 0.0043432,
        "meta_inclination": 99.2812,
        "meta_ra_of_asc_node": 229.6516,
        "meta_arg_of_pericenter": 164.2294,
        "meta_mean_anomaly": 346.544,
        "meta_ephemeris_type": 0,
        "meta_classification_type": "U",
        "meta_norad_cat_id": 31955,
        "meta_element_set_no": 999,
        "meta_rev_at_epoch": 96636,
        "meta_bstar": 0.0012300061,
        "meta_mean_motion_dot": 6.476e-05,
        "meta_mean_motion_ddot": 0,
        "tle_line1": "1 31955U 99025CNG 25352.16108106  .00006476  00000+0  12300-2 0  9998",
        "tle_line2": "2 31955  99.2812 229.6516 0043432 164.2294 346.5440 14.63981450966368"
      },
      "geometry": {
        "type": "Point",
        "coordinates": [
          -139.03153136438956,
          44.35109693000337
        ]
      }
    },
    {
      "type": "Feature",
      "properties": {
        "norad_id": 31959,
        "name": "FENGYUN 1C DEB",
        "group": "fengyun-1c-debris",
        "lat": 81.41263791662256,
        "lon": 126.28542439889739,
        "alt_km": 715.134704817433,
        "timestamp": "2025-12-18T14:52:08.310772+00:00",
        "meta_object_name": "FENGYUN 1C DEB",
        "meta_object_id": "1999-025CNL",
        "meta_epoch": "2025-12-16T09:20:13.144992",
        "meta_mean_motion": 14.46817665,
        "meta_eccentricity": 0.00270038,
        "meta_inclination": 98.512,
        "meta_ra_of_asc_node": 221.4134,
        "meta_arg_of_pericenter": 143.8247,
        "meta_mean_anomaly": 216.4778,
        "meta_ephemeris_type": 0,
        "meta_classification_type": "U",
        "meta_norad_cat_id": 31959,
        "meta_element_set_no": 999,
        "meta_rev_at_epoch": 64406,
        "meta_bstar": 0.0017000386,
        "meta_mean_motion_dot": 6.147e-05,
        "meta_mean_motion_ddot": 0,
        "tle_line1": "1 31959U 99025CNL 25350.38904103  .00006147  00000+0  17000-2 0  9992",
        "tle_line2": "2 31959  98.5120 221.4134 0027003 143.8247 216.4778 14.46817665644065"
      },
      "geometry": {
        "type": "Point",
        "coordinates": [
          126.28542439889739,
          81.41263791662256
        ]
      }
    },
    {
      "type": "Feature",
      "properties": {
        "norad_id": 31964,
        "name": "FENGYUN 1C DEB",
        "group": "fengyun-1c-debris",
        "lat": 57.7853873838942,
        "lon": -49.41165163983584,
        "alt_km": 698.5399165124481,
        "timestamp": "2025-12-18T14:52:08.310782+00:00",
        "meta_object_name": "FENGYUN 1C DEB",
        "meta_object_id": "1999-025CNR",
        "meta_epoch": "2025-12-14T14:49:38.771040",
        "meta_mean_motion": 14.58552528,
        "meta_eccentricity": 0.00285311,
        "meta_inclination": 98.6993,
        "meta_ra_of_asc_node": 112.3379,
        "meta_arg_of_pericenter": 24.3598,
        "meta_mean_anomaly": 335.8941,
        "meta_ephemeris_type": 0,
        "meta_classification_type": "U",
        "meta_norad_cat_id": 31964,
        "meta_element_set_no": 999,
        "meta_rev_at_epoch": 67537,
        "meta_bstar": 0.0020372059,
        "meta_mean_motion_dot": 9.485e-05,
        "meta_mean_motion_ddot": 0,
        "tle_line1": "1 31964U 99025CNR 25348.61780985  .00009485  00000+0  20372-2 0  9995",
        "tle_line2": "2 31964  98.6993 112.3379 0028531  24.3598 335.8941 14.58552528675371"
      },
      "geometry": {
        "type": "Point",
        "coordinates": [
          -49.41165163983584,
          57.7853873838942
        ]
      }
    },
    {
      "type": "Feature",
      "properties": {
        "norad_id": 31966,
        "name": "FENGYUN 1C DEB",
        "group": "fengyun-1c-debris",
        "lat": -67.90738727436921,
        "lon": 168.8338150090355,
        "alt_km": 625.2471417864726,
        "timestamp": "2025-12-18T14:52:08.310792+00:00",
        "meta_object_name": "FENGYUN 1C DEB",
        "meta_object_id": "1999-025CNT",
        "meta_epoch": "2025-12-17T16:16:36.229440",
        "meta_mean_motion": 14.67608917,
        "meta_eccentricity": 0.00860626,
        "meta_inclination": 99.0168,
        "meta_ra_of_asc_node": 144.7692,
        "meta_arg_of_pericenter": 259.558,
        "meta_mean_anomaly": 99.5915,
        "meta_ephemeris_type": 0,
        "meta_classification_type": "U",
        "meta_norad_cat_id": 31966,
        "meta_element_set_no": 999,
        "meta_rev_at_epoch": 65815,
        "meta_bstar": 0.00097782507,
        "meta_mean_motion_dot": 5.813e-05,
        "meta_mean_motion_ddot": 0,
        "tle_line1": "1 31966U 99025CNT 25351.67819710  .00005813  00000+0  97783-3 0  9998",
        "tle_line2": "2 31966  99.0168 144.7692 0086062 259.5580  99.5915 14.67608917658151"
      },
      "geometry": {
        "type": "Point",
        "coordinates": [
          168.8338150090355,
          -67.90738727436921
        ]
      }
    },
    {
      "type": "Feature",
      "properties": {
        "norad_id": 31972,
        "name": "FENGYUN 1C DEB",
        "group": "fengyun-1c-debris",
        "lat": 37.82022785432484,
        "lon": -138.382574558739,
        "alt_km": 897.3995101810424,
        "timestamp": "2025-12-18T14:52:08.310802+00:00",
        "meta_object_name": "FENGYUN 1C DEB",
        "meta_object_id": "1999-025CNZ",
        "meta_epoch": "2025-12-18T02:23:29.106816",
        "meta_mean_motion": 14.07516384,
        "meta_eccentricity": 0.00767042,
        "meta_inclination": 99.2111,
        "meta_ra_of_asc_node": 33.8515,
        "meta_arg_of_pericenter": 16.9937,
        "meta_mean_anomaly": 10.8926,
        "meta_ephemeris_type": 0,
        "meta_classification_type": "U",
        "meta_norad_cat_id": 31972,
        "meta_element_set_no": 999,
        "meta_rev_at_epoch": 95036,
        "meta_bstar": 0.00011364745,
        "meta_mean_motion_dot": 1.5e-06,
        "meta_mean_motion_ddot": 0,
        "tle_line1": "1 31972U 99025CNZ 25352.09964244  .00000150  00000+0  11365-3 0  9996",
        "tle_line2": "2 31972  99.2111  33.8515 0076704  16.9937  10.8926 14.07516384950369"
      },
      "geometry": {
        "type": "Point",
        "coordinates": [
          -138.382574558739,
          37.82022785432484
        ]
      }
    },
    {
      "type": "Feature",
      "properties": {
        "norad_id": 31974,
        "name": "FENGYUN 1C DEB",
        "group": "fengyun-1c-debris",
        "lat": -2.949242895845943,
        "lon": 3.9587056264047633,
        "alt_km": 780.1318836270411,
        "timestamp": "2025-12-18T14:52:08.310812+00:00",
        "meta_object_name": "FENGYUN 1C DEB",
        "meta_object_id": "1999-025CPB",
        "meta_epoch": "2025-12-17T23:45:53.775072",
        "meta_mean_motion": 14.29585216,
        "meta_eccentricity": 0.00714026,
        "meta_inclination": 98.3791,
        "meta_ra_of_asc_node": 2.9182,
        "meta_arg_of_pericenter": 287.143,
        "meta_mean_anomaly": 72.1943,
        "meta_ephemeris_type": 0,
        "meta_classification_type": "U",
        "meta_norad_cat_id": 31974,
        "meta_element_set_no": 999,
        "meta_rev_at_epoch": 69497,
        "meta_bstar": 0.0019102841,
        "meta_mean_motion_dot": 4.985e-05,
        "meta_mean_motion_ddot": 0,
        "tle_line1": "1 31974U 99025CPB 25351.99020573  .00004985  00000+0  19103-2 0  9991",
        "tle_line2": "2 31974  98.3791   2.9182 0071402 287.1430  72.1943 14.29585216694978"
      },
      "geometry": {
        "type": "Point",
        "coordinates": [
          3.9587056264047633,
          -2.949242895845943
        ]
      }
    }
  ]
}